STARLINK-33787          
1 63519U 25071AC  26068.46548510  .00025900  00000+0  88384-3 0  9993
2 63519  53.1596 143.1949 0001252  63.8364 296.2765 15.30188521 52330
KUIPER-00222            
1 67782U 26030U   26068.67636257  .00055223  00000+0  17317-2 0  9992
2 67782  51.8817 219.7147 0012800  40.1845 320.0084 15.32445377  5087
